{"type": "FeatureCollection", "features": [ {"type": "Feature", "properties": {"norad_id": 43108, "name": "BEIDOU-3 M8 (C28)", "group": "beidou", "lat": 5.434749008750751, "lon": -47.5102737446493, "alt_km": 21527.819049161793, "timestamp": "2025-12-17T19:34:08.303778+00:00", "meta": {"OBJECT_NAME": "BEIDOU-3 M8 (C28)", "OBJECT_ID": "2018-003B", "EPOCH": "2025-12-15T15:46:56.352288", "MEAN_MOTION": 1.86230781, "ECCENTRICITY": 0.00047156, "INCLINATION": 54.4868, "RA_OF_ASC_NODE": 308.6954, "ARG_OF_PERICENTER": 275.6738, "MEAN_ANOMALY": 84.2592, "EPHEMERIS_TYPE": 0, "CLASSIFICATION_TYPE": "U", "NORAD_CAT_ID": 43108, "ELEMENT_SET_NO": 999, "REV_AT_EPOCH": 5394, "BSTAR": 0, "MEAN_MOTION_DOT": -9.9e-07, "MEAN_MOTION_DDOT": 0}, "tle": {"line1": "1 43108U 18003B   25349.65759667 -.00000099  00000+0  00000+0 0  9999", "line2": "2 43108  54.4868 308.6954 0004715 275.6738  84.2592  1.86230781 53940"}}, "geometry": {"type": "Point", "coordinates": [-47.5102737446493, 5.434749008750751]}}, {"type": "Feature", "properties": {"norad_id": 43207, "name": "BEIDOU-3 M4 (C22)", "group": "beidou", "lat": 51.79651007391087, "lon": 126.3445349537716, "alt_km": 21516.759661575565, "timestamp": "2025-12-17T19:34:08.303789+00:00", "meta": {"OBJECT_NAME": "BEIDOU-3 M4 (C22)", "OBJECT_ID": "2018-018A", "EPOCH": "2025-12-13T22:50:30.052608", "MEAN_MOTION": 1.8623122, "ECCENTRICITY": 0.00041094, "INCLINATION": 56.4872, "RA_OF_ASC_NODE": 69.2635, "ARG_OF_PERICENTER": 7.3509, "MEAN_ANOMALY": 352.6729, "EPHEMERIS_TYPE": 0, "CLASSIFICATION_TYPE": "U", "NORAD_CAT_ID": 43207, "ELEMENT_SET_NO": 999, "REV_AT_EPOCH": 5329, "BSTAR": 0, "MEAN_MOTION_DOT": -8.1e-07, "MEAN_MOTION_DDOT": 0}, "tle": {"line1": "1 43207U 18018A   25347.95173672 -.00000081  00000+0  00000+0 0  9993", "line2": "2 43207  56.4872  69.2635 0004109   7.3509 352.6729  1.86231220 53297"}}, "geometry": {"type": "Point", "coordinates": [126.3445349537716, 51.79651007391087]}}, {"type": "Feature", "properties": {"norad_id": 43208, "name": "BEIDOU-3 M3 (C21)", "group": "beidou", "lat": 21.275433835345336, "lon": 84.07917364357463, "alt_km": 21518.853909066584, "timestamp": "2025-12-17T19:34:08.303800+00:00", "meta": {"OBJECT_NAME": "BEIDOU-3 M3 (C21)", "OBJECT_ID": "2018-018B", "EPOCH": "2025-12-14T00:26:16.877760", "MEAN_MOTION": 1.86231433, "ECCENTRICITY": 0.00066523, "INCLINATION": 56.4868, "RA_OF_ASC_NODE": 69.2653, "ARG_OF_PERICENTER": 316.6996, "MEAN_ANOMALY": 43.266, "EPHEMERIS_TYPE": 0, "CLASSIFICATION_TYPE": "U", "NORAD_CAT_ID": 43208, "ELEMENT_SET_NO": 999, "REV_AT_EPOCH": 5329, "BSTAR": 0, "MEAN_MOTION_DOT": -8.1e-07, "MEAN_MOTION_DDOT": 0}, "tle": {"line1": "1 43208U 18018B   25348.01825090 -.00000081  00000+0  00000+0 0  9990", "line2": "2 43208  56.4868  69.2653 0006652 316.6996  43.2660  1.86231433 53297"}}, "geometry": {"type": "Point", "coordinates": [84.07917364357463, 21.275433835345336]}}, {"type": "Feature", "properties": {"norad_id": 43245, "name": "BEIDOU-3 M9 (C29)", "group": "beidou", "lat": -45.19727895988713, "lon": 172.46787664697507, "alt_km": 21530.33212811967, "timestamp": "2025-12-17T19:34:08.303811+00:00", "meta": {"OBJECT_NAME": "BEIDOU-3 M9 (C29)", "OBJECT_ID": "2018-029A", "EPOCH": "2025-12-16T22:03:42.750720", "MEAN_MOTION": 1.86228481, "ECCENTRICITY": 0.00015662, "INCLINATION": 54.3617, "RA_OF_ASC_NODE": 306.3216, "ARG_OF_PERICENTER": 284.8378, "MEAN_ANOMALY": 75.1315, "EPHEMERIS_TYPE": 0, "CLASSIFICATION_TYPE": "U", "NORAD_CAT_ID": 43245, "ELEMENT_SET_NO": 999, "REV_AT_EPOCH": 5250, "BSTAR": 0, "MEAN_MOTION_DOT": -9.3e-07, "MEAN_MOTION_DDOT": 0}, "tle": {"line1": "1 43245U 18029A   25350.91924480 -.00000093  00000+0  00000+0 0  9991", "line2": "2 43245  54.3617 306.3216 0001566 284.8378  75.1315  1.86228481 52509"}}, "geometry": {"type": "Point", "coordinates": [172.46787664697507, -45.19727895988713]}}, {"type": "Feature", "properties": {"norad_id": 43246, "name": "BEIDOU-3 M10 (C30)", "group": "beidou", "lat": -51.990715982221936, "lon": -120.2377062557294, "alt_km": 21531.466626259607, "timestamp": "2025-12-17T19:34:08.303854+00:00", "meta": {"OBJECT_NAME": "BEIDOU-3 M10 (C30)", "OBJECT_ID": "2018-029B", "EPOCH": "2025-12-16T20:30:27.421056", "MEAN_MOTION": 1.86229026, "ECCENTRICITY": 0.00041394, "INCLINATION": 54.3591, "RA_OF_ASC_NODE": 306.3508, "ARG_OF_PERICENTER": 2.0854, "MEAN_ANOMALY": 357.9028, "EPHEMERIS_TYPE": 0, "CLASSIFICATION_TYPE": "U", "NORAD_CAT_ID": 43246, "ELEMENT_SET_NO": 999, "REV_AT_EPOCH": 5248, "BSTAR": 0, "MEAN_MOTION_DOT": -9.3e-07, "MEAN_MOTION_DDOT": 0}, "tle": {"line1": "1 43246U 18029B   25350.85448404 -.00000093  00000+0  00000+0 0  9992", "line2": "2 43246  54.3591 306.3508 0004139   2.0854 357.9028  1.86229026 52488"}}, "geometry": {"type": "Point", "coordinates": [-120.2377062557294, -51.990715982221936]}}, {"type": "Feature", "properties": {"norad_id": 43539, "name": "BEIDOU-2 IGSO-7 (C16)", "group": "beidou", "lat": -26.34404117967969, "lon": 144.41696253768876, "alt_km": 35804.06155071411, "timestamp": "2025-12-17T19:34:08.303869+00:00", "meta": {"OBJECT_NAME": "BEIDOU-2 IGSO-7 (C16)", "OBJECT_ID": "2018-057A", "EPOCH": "2025-12-15T07:47:07.120608", "MEAN_MOTION": 1.00256546, "ECCENTRICITY": 0.00926218, "INCLINATION": 55.1766, "RA_OF_ASC_NODE": 164.6485, "ARG_OF_PERICENTER": 235.2644, "MEAN_ANOMALY": 271.8458, "EPHEMERIS_TYPE": 0, "CLASSIFICATION_TYPE": "U", "NORAD_CAT_ID": 43539, "ELEMENT_SET_NO": 999, "REV_AT_EPOCH": 2728, "BSTAR": 0, "MEAN_MOTION_DOT": -2.3e-07, "MEAN_MOTION_DDOT": 0}, "tle": {"line1": "1 43539U 18057A   25349.32438797 -.00000023  00000+0  00000+0 0  9995", "line2": "2 43539  55.1766 164.6485 0092621 235.2644 271.8458  1.00256546 27289"}}, "geometry": {"type": "Point", "coordinates": [144.41696253768876, -26.34404117967969]}}, {"type": "Feature", "properties": {"norad_id": 43581, "name": "BEIDOU-3 M5 (C23)", "group": "beidou", "lat": 35.86330918176123, "lon": -23.129714099726204, "alt_km": 21528.323103869923, "timestamp": "2025-12-17T19:34:08.303881+00:00", "meta": {"OBJECT_NAME": "BEIDOU-3 M5 (C23)", "OBJECT_ID": "2018-062A", "EPOCH": "2025-12-12T05:55:01.607232", "MEAN_MOTION": 1.86228672, "ECCENTRICITY": 0.00021016, "INCLINATION": 54.0891, "RA_OF_ASC_NODE": 188.6597, "ARG_OF_PERICENTER": 354.1416, "MEAN_ANOMALY": 5.9159, "EPHEMERIS_TYPE": 0, "CLASSIFICATION_TYPE": "U", "NORAD_CAT_ID": 43581, "ELEMENT_SET_NO": 999, "REV_AT_EPOCH": 5015, "BSTAR": 0, "MEAN_MOTION_DOT": 7.9e-07, "MEAN_MOTION_DDOT": 0}, "tle": {"line1": "1 43581U 18062A   25346.24654638  .00000079  00000+0  00000+0 0  9990", "line2": "2 43581  54.0891 188.6597 0002101 354.1416   5.9159  1.86228672 50154"}}, "geometry": {"type": "Point", "coordinates": [-23.129714099726204, 35.86330918176123]}}, {"type": "Feature", "properties": {"norad_id": 43582, "name": "BEIDOU-3 M6 (C24)", "group": "beidou", "lat": -35.289391741486774, "lon": 39.3372191015757, "alt_km": 21554.523782072818, "timestamp": "2025-12-17T19:34:08.303893+00:00", "meta": {"OBJECT_NAME": "BEIDOU-3 M6 (C24)", "OBJECT_ID": "2018-062B", "EPOCH": "2025-12-16T22:36:47.503008", "MEAN_MOTION": 1.86229876, "ECCENTRICITY": 0.00079021, "INCLINATION": 54.0891, "RA_OF_ASC_NODE": 188.4892, "ARG_OF_PERICENTER": 48.1398, "MEAN_ANOMALY": 311.9965, "EPHEMERIS_TYPE": 0, "CLASSIFICATION_TYPE": "U", "NORAD_CAT_ID": 43582, "ELEMENT_SET_NO": 999, "REV_AT_EPOCH": 5024, "BSTAR": 0, "MEAN_MOTION_DOT": 1.14e-06, "MEAN_MOTION_DDOT": 0}, "tle": {"line1": "1 43582U 18062B   25350.94221647  .00000114  00000+0  00000+0 0  9993", "line2": "2 43582  54.0891 188.4892 0007902  48.1398 311.9965  1.86229876 50246"}}, "geometry": {"type": "Point", "coordinates": [39.3372191015757, -35.289391741486774]}}, {"type": "Feature", "properties": {"norad_id": 43602, "name": "BEIDOU-3 M12 (C26)", "group": "beidou", "lat": -54.04938083178245, "lon": 92.21390998774807, "alt_km": 21551.934535696466, "timestamp": "2025-12-17T19:34:08.303905+00:00", "meta": {"OBJECT_NAME": "BEIDOU-3 M12 (C26)", "OBJECT_ID": "2018-067A", "EPOCH": "2025-12-15T19:20:53.031840", "MEAN_MOTION": 1.86227731, "ECCENTRICITY": 0.00092007, "INCLINATION": 54.1833, "RA_OF_ASC_NODE": 187.259, "ARG_OF_PERICENTER": 40.7418, "MEAN_ANOMALY": 319.394, "EPHEMERIS_TYPE": 0, "CLASSIFICATION_TYPE": "U", "NORAD_CAT_ID": 43602, "ELEMENT_SET_NO": 999, "REV_AT_EPOCH": 4970, "BSTAR": 0, "MEAN_MOTION_DOT": 1.15e-06, "MEAN_MOTION_DDOT": 0}, "tle": {"line1": "1 43602U 18067A   25349.80616935  .00000115  00000+0  00000+0 0  9993", "line2": "2 43602  54.1833 187.2590 0009200  40.7418 319.3940  1.86227731 49704"}}, "geometry": {"type": "Point", "coordinates": [92.21390998774807, -54.04938083178245]}}, {"type": "Feature", "properties": {"norad_id": 43603, "name": "BEIDOU-3 M11 (C25)", "group": "beidou", "lat": 2.432803523966031, "lon": 5.401708250726091, "alt_km": 21540.376549443507, "timestamp": "2025-12-17T19:34:08.303916+00:00", "meta": {"OBJECT_NAME": "BEIDOU-3 M11 (C25)", "OBJECT_ID": "2018-067B", "EPOCH": "2025-12-17T00:21:01.909152", "MEAN_MOTION": 1.86227265, "ECCENTRICITY": 0.00055837, "INCLINATION": 54.1803, "RA_OF_ASC_NODE": 187.182, "ARG_OF_PERICENTER": 36.4567, "MEAN_ANOMALY": 323.6478, "EPHEMERIS_TYPE": 0, "CLASSIFICATION_TYPE": "U", "NORAD_CAT_ID": 43603, "ELEMENT_SET_NO": 999, "REV_AT_EPOCH": 4975, "BSTAR": 0, "MEAN_MOTION_DOT": 1.14e-06, "MEAN_MOTION_DDOT": 0}, "tle": {"line1": "1 43603U 18067B   25351.01460543  .00000114  00000+0  00000+0 0  9991", "line2": "2 43603  54.1803 187.1820 0005583  36.4567 323.6478  1.86227265 49755"}}, "geometry": {"type": "Point", "coordinates": [5.401708250726091, 2.432803523966031]}}]}